start=new Date('2021-09-07T00:00:00.000Z').valueOf();
sats=[{"BSTAR":"0.00151250000000","MEAN_ANOMALY":"195.1583","SITE":"AFETR","OBJECT_ID":"2021-012P","FILE":"3109923","RCS_SIZE":"LARGE","MEAN_MOTION_DDOT":"0.0000000000000","TIME_SYSTEM":"UTC","OBJECT_TYPE":"PAYLOAD","CLASSIFICATION_TYPE":"U","PERIOD":"95.592","REF_FRAME":"TEME","TLE_LINE2":"2 47633  53.0513 254.9230 0001121  66.7560 195.1583 15.06402282  3579","ARG_OF_PERICENTER":"66.7560","ELEMENT_SET_NO":"999","NORAD_CAT_ID":"47633","TLE_LINE1":"1 47633U 21012P   21250.00001157  .00022320  00000-0  15125-2 0  9998","EPHEMERIS_TYPE":"0","COUNTRY_CODE":"US","APOAPSIS":"547.983","RA_OF_ASC_NODE":"254.9230","REV_AT_EPOCH":"357","MEAN_MOTION":"15.06402282","EPOCH":"2021-09-07T00:00:00.999648","SEMIMAJOR_AXIS":"6925.342","DECAY_DATE":null,"LAUNCH_DATE":"2021-02-16","MEAN_ELEMENT_THEORY":"SGP4","INCLINATION":"53.0513","ECCENTRICITY":"0.00011210","GP_ID":"184225716","MEAN_MOTION_DOT":"0.00022320","CENTER_NAME":"EARTH","PERIAPSIS":"546.430","OBJECT_NAME":"STARLINK-2009"},{"FILE":"3109923","BSTAR":"0.00161070000000","MEAN_ANOMALY":"306.2715","SITE":"AFETR","OBJECT_ID":"2021-012Q","CLASSIFICATION_TYPE":"U","PERIOD":"95.594","REF_FRAME":"TEME","MEAN_MOTION_DDOT":"0.0000000000000","RCS_SIZE":"LARGE","OBJECT_TYPE":"PAYLOAD","TIME_SYSTEM":"UTC","NORAD_CAT_ID":"47634","TLE_LINE2":"2 47634  53.0533 254.9200 0001291  75.7076 306.2715 15.06375948  3580","ARG_OF_PERICENTER":"75.7076","ELEMENT_SET_NO":"999","COUNTRY_CODE":"US","APOAPSIS":"548.181","TLE_LINE1":"1 47634U 21012Q   21250.00001157  .00023776  00000-0  16107-2 0  9996","EPHEMERIS_TYPE":"0","DECAY_DATE":null,"REV_AT_EPOCH":"358","RA_OF_ASC_NODE":"254.9200","MEAN_MOTION":"15.06375948","EPOCH":"2021-09-07T00:00:00.999648","SEMIMAJOR_AXIS":"6925.422","LAUNCH_DATE":"2021-02-16","ECCENTRICITY":"0.00012910","GP_ID":"184226466","MEAN_ELEMENT_THEORY":"SGP4","INCLINATION":"53.0533","PERIAPSIS":"546.393","CENTER_NAME":"EARTH","OBJECT_NAME":"STARLINK-2010","MEAN_MOTION_DOT":"0.00023776"},{"REV_AT_EPOCH":"368","RA_OF_ASC_NODE":"173.2000","MEAN_MOTION":"15.73247994","EPOCH":"2021-09-07T00:00:00.999648","SEMIMAJOR_AXIS":"6727.758","DECAY_DATE":null,"LAUNCH_DATE":"2021-02-16","MEAN_ELEMENT_THEORY":"SGP4","INCLINATION":"53.0437","ECCENTRICITY":"0.00039590","GP_ID":"184225214","MEAN_MOTION_DOT":"-0.00096404","CENTER_NAME":"EARTH","PERIAPSIS":"346.960","OBJECT_NAME":"STARLINK-2012","BSTAR":"-0.00068840000000","MEAN_ANOMALY":"81.7568","SITE":"AFETR","OBJECT_ID":"2021-012R","FILE":"3109923","MEAN_MOTION_DDOT":"0.0000000000000","RCS_SIZE":"LARGE","TIME_SYSTEM":"UTC","OBJECT_TYPE":"PAYLOAD","PERIOD":"91.530","CLASSIFICATION_TYPE":"U","REF_FRAME":"TEME","ARG_OF_PERICENTER":"7.1773","TLE_LINE2":"2 47635  53.0437 173.2000 0003959   7.1773  81.7568 15.73247994  3686","ELEMENT_SET_NO":"999","NORAD_CAT_ID":"47635","EPHEMERIS_TYPE":"0","TLE_LINE1":"1 47635U 21012R   21250.00001157 -.00096404  00000-0 -68840-3 0  9999","COUNTRY_CODE":"US","APOAPSIS":"352.287"},{"FILE":"3109923","MEAN_ANOMALY":"260.6470","BSTAR":"0.00009926100000","OBJECT_ID":"2021-012S","SITE":"AFETR","CLASSIFICATION_TYPE":"U","PERIOD":"95.592","REF_FRAME":"TEME","MEAN_MOTION_DDOT":"0.0000000000000","RCS_SIZE":"LARGE","OBJECT_TYPE":"PAYLOAD","TIME_SYSTEM":"UTC","NORAD_CAT_ID":"47636","ELEMENT_SET_NO":"999","TLE_LINE2":"2 47636  53.0523 234.9065 0006740 191.1693 260.6470 15.06404017  3570","ARG_OF_PERICENTER":"191.1693","COUNTRY_CODE":"US","APOAPSIS":"551.869","TLE_LINE1":"1 47636U 21012S   21250.00001157  .00001196  00000-0  99261-4 0  9994","EPHEMERIS_TYPE":"0","DECAY_DATE":null,"MEAN_MOTION":"15.06404017","RA_OF_ASC_NODE":"234.9065","REV_AT_EPOCH":"357","SEMIMAJOR_AXIS":"6925.336","EPOCH":"2021-09-07T00:00:00.999648","LAUNCH_DATE":"2021-02-16","GP_ID":"184224965","ECCENTRICITY":"0.00067400","MEAN_ELEMENT_THEORY":"SGP4","INCLINATION":"53.0523","OBJECT_NAME":"STARLINK-2013","CENTER_NAME":"EARTH","PERIAPSIS":"542.534","MEAN_MOTION_DOT":"0.00001196"},{"INCLINATION":"53.0524","MEAN_ELEMENT_THEORY":"SGP4","ECCENTRICITY":"0.00009680","GP_ID":"184226216","MEAN_MOTION_DOT":"-0.00001100","PERIAPSIS":"546.564","CENTER_NAME":"EARTH","OBJECT_NAME":"STARLINK-2014","EPOCH":"2021-09-07T00:00:00.999648","SEMIMAJOR_AXIS":"6925.369","RA_OF_ASC_NODE":"234.9053","REV_AT_EPOCH":"357","MEAN_MOTION":"15.06393333","DECAY_DATE":null,"LAUNCH_DATE":"2021-02-16","TLE_LINE2":"2 47637  53.0524 234.9053 0000968  35.9878 215.9180 15.06393333  3574","ARG_OF_PERICENTER":"35.9878","ELEMENT_SET_NO":"999","NORAD_CAT_ID":"47637","EPHEMERIS_TYPE":"0","TLE_LINE1":"1 47637U 21012T   21250.00001157 -.00001100  00000-0 -54973-4 0  9993","APOAPSIS":"547.904","COUNTRY_CODE":"US","SITE":"AFETR","OBJECT_ID":"2021-012T","BSTAR":"-0.00005497300000","MEAN_ANOMALY":"215.9180","FILE":"3109923","TIME_SYSTEM":"UTC","OBJECT_TYPE":"PAYLOAD","MEAN_MOTION_DDOT":"0.0000000000000","RCS_SIZE":"LARGE","REF_FRAME":"TEME","PERIOD":"95.593","CLASSIFICATION_TYPE":"U"},{"COUNTRY_CODE":"US","APOAPSIS":"352.122","TLE_LINE1":"1 47638U 21012U   21250.00001157 -.00071796  00000-0 -51054-3 0  9998","EPHEMERIS_TYPE":"0","NORAD_CAT_ID":"47638","ELEMENT_SET_NO":"999","ARG_OF_PERICENTER":"7.6915","TLE_LINE2":"2 47638  53.0420 173.1898 0003630   7.6915  76.1287 15.73228086  3681","PERIOD":"91.532","CLASSIFICATION_TYPE":"U","REF_FRAME":"TEME","MEAN_MOTION_DDOT":"0.0000000000000","RCS_SIZE":"LARGE","OBJECT_TYPE":"PAYLOAD","TIME_SYSTEM":"UTC","FILE":"3109923","MEAN_ANOMALY":"76.1287","BSTAR":"-0.00051054000000","OBJECT_ID":"2021-012U","SITE":"AFETR","OBJECT_NAME":"STARLINK-2015","CENTER_NAME":"EARTH","PERIAPSIS":"347.238","MEAN_MOTION_DOT":"-0.00071796","GP_ID":"184225967","ECCENTRICITY":"0.00036300","MEAN_ELEMENT_THEORY":"SGP4","INCLINATION":"53.0420","LAUNCH_DATE":"2021-02-16","DECAY_DATE":null,"MEAN_MOTION":"15.73228086","RA_OF_ASC_NODE":"173.1898","REV_AT_EPOCH":"368","SEMIMAJOR_AXIS":"6727.815","EPOCH":"2021-09-07T00:00:00.999648"},{"TLE_LINE1":"1 47639U 21012V   21250.00001157 -.00000601  00000-0 -21453-4 0  9997","EPHEMERIS_TYPE":"0","COUNTRY_CODE":"US","APOAPSIS":"547.862","TLE_LINE2":"2 47639  53.0523 234.9023 0000905  64.0161 307.9467 15.06392819  3580","ARG_OF_PERICENTER":"64.0161","ELEMENT_SET_NO":"999","NORAD_CAT_ID":"47639","MEAN_MOTION_DDOT":"0.0000000000000","RCS_SIZE":"LARGE","TIME_SYSTEM":"UTC","OBJECT_TYPE":"PAYLOAD","PERIOD":"95.593","CLASSIFICATION_TYPE":"U","REF_FRAME":"TEME","BSTAR":"-0.00002145300000","MEAN_ANOMALY":"307.9467","SITE":"AFETR","OBJECT_ID":"2021-012V","FILE":"3109923","MEAN_MOTION_DOT":"-0.00000601","CENTER_NAME":"EARTH","PERIAPSIS":"546.609","OBJECT_NAME":"STARLINK-2016","MEAN_ELEMENT_THEORY":"SGP4","INCLINATION":"53.0523","ECCENTRICITY":"0.00009050","GP_ID":"184224715","LAUNCH_DATE":"2021-02-16","REV_AT_EPOCH":"358","RA_OF_ASC_NODE":"234.9023","MEAN_MOTION":"15.06392819","EPOCH":"2021-09-07T00:00:00.999648","SEMIMAJOR_AXIS":"6925.371","DECAY_DATE":null},{"CLASSIFICATION_TYPE":"U","PERIOD":"95.592","REF_FRAME":"TEME","MEAN_MOTION_DDOT":"0.0000000000000","RCS_SIZE":"LARGE","OBJECT_TYPE":"PAYLOAD","TIME_SYSTEM":"UTC","FILE":"3109923","BSTAR":"0.00156500000000","MEAN_ANOMALY":"322.9220","SITE":"AFETR","OBJECT_ID":"2021-012W","COUNTRY_CODE":"US","APOAPSIS":"548.169","EPHEMERIS_TYPE":"0","TLE_LINE1":"1 47640U 21012W   21250.00001157  .00023104  00000-0  15650-2 0  9990","NORAD_CAT_ID":"47640","TLE_LINE2":"2 47640  53.0533 254.9185 0001364  79.0153 322.9220 15.06396418  3584","ARG_OF_PERICENTER":"79.0153","ELEMENT_SET_NO":"999","LAUNCH_DATE":"2021-02-16","DECAY_DATE":null,"RA_OF_ASC_NODE":"254.9185","REV_AT_EPOCH":"358","MEAN_MOTION":"15.06396418","EPOCH":"2021-09-07T00:00:00.999648","SEMIMAJOR_AXIS":"6925.360","PERIAPSIS":"546.280","CENTER_NAME":"EARTH","OBJECT_NAME":"STARLINK-2018","MEAN_MOTION_DOT":"0.00023104","ECCENTRICITY":"0.00013640","GP_ID":"184225465","MEAN_ELEMENT_THEORY":"SGP4","INCLINATION":"53.0533"},{"DECAY_DATE":null,"MEAN_MOTION":"15.73185589","REV_AT_EPOCH":"368","RA_OF_ASC_NODE":"173.1903","SEMIMAJOR_AXIS":"6727.936","EPOCH":"2021-09-07T00:00:00.999648","LAUNCH_DATE":"2021-02-16","GP_ID":"184225717","ECCENTRICITY":"0.00040150","MEAN_ELEMENT_THEORY":"SGP4","INCLINATION":"53.0431","OBJECT_NAME":"STARLINK-2019","CENTER_NAME":"EARTH","PERIAPSIS":"347.100","MEAN_MOTION_DOT":"0.00000359","FILE":"3109923","MEAN_ANOMALY":"76.9484","BSTAR":"0.00000701090000","OBJECT_ID":"2021-012X","SITE":"AFETR","PERIOD":"91.534","CLASSIFICATION_TYPE":"U","REF_FRAME":"TEME","RCS_SIZE":"LARGE","MEAN_MOTION_DDOT":"0.0000000000000","OBJECT_TYPE":"PAYLOAD","TIME_SYSTEM":"UTC","NORAD_CAT_ID":"47641","ELEMENT_SET_NO":"999","TLE_LINE2":"2 47641  53.0431 173.1903 0004015  11.3507  76.9484 15.73185589  3688","ARG_OF_PERICENTER":"11.3507","COUNTRY_CODE":"US","APOAPSIS":"352.503","TLE_LINE1":"1 47641U 21012X   21250.00001157  .00000359  00000-0  70109-5 0  9991","EPHEMERIS_TYPE":"0"},{"FILE":"3109923","SITE":"AFETR","OBJECT_ID":"2021-012Y","BSTAR":"0.00134450000000","MEAN_ANOMALY":"325.5600","REF_FRAME":"TEME","PERIOD":"95.593","CLASSIFICATION_TYPE":"U","OBJECT_TYPE":"PAYLOAD","TIME_SYSTEM":"UTC","MEAN_MOTION_DDOT":"0.0000000000000","RCS_SIZE":"LARGE","NORAD_CAT_ID":"47642","ARG_OF_PERICENTER":"68.9533","TLE_LINE2":"2 47642  53.0519 249.9044 0000952  68.9533 325.5600 15.06391982  3581","ELEMENT_SET_NO":"999","APOAPSIS":"547.897","COUNTRY_CODE":"US","TLE_LINE1":"1 47642U 21012Y   21250.00001157  .00019797  00000-0  13445-2 0  9995","EPHEMERIS_TYPE":"0","DECAY_DATE":null,"EPOCH":"2021-09-07T00:00:00.999648","SEMIMAJOR_AXIS":"6925.373","RA_OF_ASC_NODE":"249.9044","REV_AT_EPOCH":"358","MEAN_MOTION":"15.06391982","LAUNCH_DATE":"2021-02-16","ECCENTRICITY":"0.00009520","GP_ID":"184226467","INCLINATION":"53.0519","MEAN_ELEMENT_THEORY":"SGP4","PERIAPSIS":"546.579","CENTER_NAME":"EARTH","OBJECT_NAME":"STARLINK-2020","MEAN_MOTION_DOT":"0.00019797"}];
